NORAD_CAT_ID,OBJECT_NAME,OBJECT_TYPE,EPOCH,MEAN_MOTION,ECCENTRICITY,INCLINATION,RA_OF_ASC_NODE,ARG_OF_PERICENTER,MEAN_ANOMALY,BSTAR,MEAN_MOTION_DOT,MEAN_MOTION_DDOT,TLE_LINE0,TLE_LINE1,TLE_LINE2,SEMIMAJOR_AXIS,PERIOD,APOGEE,PERIGEE,DECAYED
52487.0,STARLINK-3902,PAYLOAD,2023-11-18 00:21:32,15.08836611,0.0001655,53.2166,232.1385,99.0672,261.0508,4.8085e-06,-2.12e-06,0.0,0 STARLINK-3902,1 52487U 22049AN  23322.01495425 -.00000212  00000-0  48085-5 0  9991,2 52487  53.2166 232.1385 0001655  99.0672 261.0508 15.08836611 85335,6917.891,95.438,540.901,538.611,0.0
52487.0,STARLINK-3902,PAYLOAD,2023-11-18 11:29:13,15.0884282,0.0001483,53.2162,230.0582,89.3169,270.7993,9.5741e-05,1.236e-05,0.0,0 STARLINK-3902,1 52487U 22049AN  23322.47863379  .00001236  00000-0  95741-4 0  9994,2 52487  53.2162 230.0582 0001483  89.3169 270.7993 15.08842820 86480,6917.872,95.437,540.763,538.711,0.0
52487.0,STARLINK-3902,PAYLOAD,2023-11-19 11:20:00,15.08849752,0.000141,53.2154,225.5998,78.2725,281.8425,0.000288,4.3e-05,0.0,0 STARLINK-3902,1 52487U 22049AN  23323.47223015  .00004300  00000-0  28800-3 0  9998,2 52487  53.2154 225.5998 0001410  78.2725 281.8425 15.08849752 85557,6917.851,95.437,540.691,538.74,0.0
52487.0,STARLINK-3902,PAYLOAD,2023-11-19 22:27:42,15.0884293,0.0001475,53.2159,223.5178,83.2033,276.9127,9.3948e-05,1.208e-05,0.0,0 STARLINK-3902,1 52487U 22049AN  23323.93591178  .00001208  00000-0  93948-4 0  9997,2 52487  53.2159 223.5178 0001475  83.2033 276.9127 15.08842930 86702,6917.871,95.437,540.757,538.716,0.0
52487.0,STARLINK-3902,PAYLOAD,2023-11-20 03:13:51,15.0884624,0.0001536,53.2158,222.623,95.506,264.6108,0.00014151,1.965e-05,0.0,0 STARLINK-3902,1 52487U 22049AN  23324.13462863  .00001965  00000-0  14151-3 0  9996,2 52487  53.2158 222.6230 0001536  95.5060 264.6108 15.08846240 85658,6917.861,95.437,540.789,538.664,0.0
52487.0,STARLINK-3902,PAYLOAD,2023-11-20 22:18:29,15.08835133,0.0001598,53.2161,219.0543,99.6661,260.4512,0.00013534,1.866e-05,0.0,0 STARLINK-3902,1 52487U 22049AN  23324.92951331  .00001866  00000-0  13534-3 0  9990,2 52487  53.2161 219.0543 0001598  99.6661 260.4512 15.08835133 86854,6917.895,95.438,540.866,538.655,0.0
52487.0,STARLINK-3902,PAYLOAD,2023-11-21 03:04:39,15.08840486,0.0001716,53.2176,218.1617,101.9006,258.2178,5.1305e-06,-2.06e-06,0.0,0 STARLINK-3902,1 52487U 22049AN  23325.12823084 -.00000206  00000-0  51305-5 0  9994,2 52487  53.2176 218.1617 0001716 101.9006 258.2178 15.08840486 85808,6917.879,95.438,540.931,538.557,0.0
52487.0,STARLINK-3902,PAYLOAD,2023-11-21 20:33:53,15.08841573,0.0001664,53.2172,214.891,102.0183,258.0996,3.4631e-05,2.63e-06,0.0,0 STARLINK-3902,1 52487U 22049AN  23325.85687004  .00000263  00000-0  34631-4 0  9998,2 52487  53.2172 214.8910 0001664 102.0183 258.0996 15.08841573 86998,6917.876,95.437,540.892,538.589,0.0
52487.0,STARLINK-3902,PAYLOAD,2023-11-21 23:44:39,15.08846309,0.00017,53.2178,214.2956,101.7524,258.3659,4.0152e-05,3.51e-06,0.0,0 STARLINK-3902,1 52487U 22049AN  23325.98934701  .00000351  00000-0  40152-4 0  9994,2 52487  53.2178 214.2956 0001700 101.7524 258.3659 15.08846309 87019,6917.861,95.437,540.902,538.55,0.0
52487.0,STARLINK-3902,PAYLOAD,2023-11-22 20:24:40,15.08843477,0.0001722,53.2175,210.43,108.0828,252.0352,0.00011803,1.591e-05,0.0,0 STARLINK-3902,1 52487U 22049AN  23326.85046661  .00001591  00000-0  11803-3 0  9997,2 52487  53.2175 210.4300 0001722 108.0828 252.0352 15.08843477 87146,6917.87,95.437,540.926,538.544,0.0
52487.0,STARLINK-3902,PAYLOAD,2023-11-23 02:46:12,15.08849284,0.0001553,53.2166,209.2371,100.3524,259.7643,0.00014517,2.024e-05,0.0,0 STARLINK-3902,1 52487U 22049AN  23327.11542100  .00002024  00000-0  14517-3 0  9993,2 52487  53.2166 209.2371 0001553 100.3524 259.7643 15.08849284 86104,6917.852,95.437,540.791,538.643,0.0
52487.0,STARLINK-3902,PAYLOAD,2023-11-23 20:15:28,15.08827515,0.000152,53.2161,205.9704,109.3083,250.8074,-0.00024274,-4.148e-05,0.0,0 STARLINK-3902,1 52487U 22049AN  23327.84407582 -.00004148  00000-0 -24274-3 0  9999,2 52487  53.2161 205.9704 0001520 109.3083 250.8074 15.08827515 86210,6917.919,95.438,540.835,538.732,0.0
52487.0,STARLINK-3902,PAYLOAD,2023-11-23 21:50:51,15.08827256,0.0001499,53.2159,205.6729,109.9195,250.1958,-0.00023777,-4.069e-05,0.0,0 STARLINK-3902,1 52487U 22049AN  23327.91031627 -.00004069  00000-0 -23777-3 0  9999,2 52487  53.2159 205.6729 0001499 109.9195 250.1958 15.08827256 87303,6917.919,95.438,540.821,538.747,0.0
52487.0,STARLINK-3902,PAYLOAD,2023-11-24 02:37:00,15.08825845,0.0001378,53.2158,204.7813,96.0392,264.0757,-0.00021417,-3.693e-05,0.0,0 STARLINK-3902,1 52487U 22049AN  23328.10903935 -.00003693  00000-0 -21417-3 0  9992,2 52487  53.2158 204.7813 0001378  96.0392 264.0757 15.08825845 87333,6917.924,95.438,540.742,538.835,0.0
52487.0,STARLINK-3902,PAYLOAD,2023-11-24 21:41:38,15.08839659,0.0001469,53.2156,201.2168,80.3325,279.7833,-3.4997e-05,-8.45e-06,0.0,0 STARLINK-3902,1 52487U 22049AN  23328.90391715 -.00000845  00000-0 -34997-4 0  9991,2 52487  53.2156 201.2168 0001469  80.3325 279.7833 15.08839659 87458,6917.881,95.438,540.763,538.73,0.0
52487.0,STARLINK-3902,PAYLOAD,2023-11-24 23:17:01,15.08841412,0.000155,53.2158,200.9168,111.705,248.4107,6.1131e-05,6.85e-06,0.0,0 STARLINK-3902,1 52487U 22049AN  23328.97015609  .00000685  00000-0  61131-4 0  9993,2 52487  53.2158 200.9168 0001550 111.7050 248.4107 15.08841412 86389,6917.876,95.437,540.813,538.669,0.0
52487.0,STARLINK-3902,PAYLOAD,2023-11-25 21:32:25,15.08849069,0.0001359,53.2145,196.7553,79.9034,280.2111,0.00046484,7.12e-05,0.0,0 STARLINK-3902,1 52487U 22049AN  23329.89751772  .00007120  00000-0  46484-3 0  9997,2 52487  53.2145 196.7553 0001359  79.9034 280.2111 15.08849069 87600,6917.853,95.437,540.658,538.778,0.0
52487.0,STARLINK-3902,PAYLOAD,2023-11-26 00:43:11,15.08861726,0.0001343,53.2149,196.1578,99.4723,260.6421,0.00058997,9.119e-05,0.0,0 STARLINK-3902,1 52487U 22049AN  23330.02999170  .00009119  00000-0  58997-3 0  9992,2 52487  53.2149 196.1578 0001343  99.4723 260.6421 15.08861726 86542,6917.814,95.436,540.608,538.75,0.0
52487.0,STARLINK-3902,PAYLOAD,2023-11-26 19:47:49,15.08839494,0.0001275,53.2146,192.5914,100.0966,260.017,2.5174e-05,1.13e-06,0.0,0 STARLINK-3902,1 52487U 22049AN  23330.82487891  .00000113  00000-0  25174-4 0  9999,2 52487  53.2146 192.5914 0001275 100.0966 260.0170 15.08839494 86660,6917.882,95.438,540.629,538.865,0.0
52487.0,STARLINK-3902,PAYLOAD,2023-11-26 21:23:12,15.0883972,0.00013,53.2145,192.2939,99.8616,260.2523,2.7518e-05,1.5e-06,0.0,0 STARLINK-3902,1 52487U 22049AN  23330.89111862  .00000150  00000-0  27518-4 0  9993,2 52487  53.2145 192.2939 0001300  99.8616 260.2523 15.08839720 87756,6917.881,95.438,540.646,538.847,0.0
52487.0,STARLINK-3902,PAYLOAD,2023-11-27 14:52:27,15.08836713,0.0001485,53.2146,189.0203,116.9022,243.2122,-6.6057e-05,-1.339e-05,0.0,0 STARLINK-3902,1 52487U 22049AN  23331.61976053 -.00001339  00000-0 -66057-4 0  9998,2 52487  53.2146 189.0203 0001485 116.9022 243.2122 15.08836713 87868,6917.89,95.438,540.783,538.728,0.0
52487.0,STARLINK-3902,PAYLOAD,2023-11-27 21:13:59,15.08841734,0.0001455,53.2147,187.8316,103.8697,256.2457,6.9921e-05,8.25e-06,0.0,0 STARLINK-3902,1 52487U 22049AN  23331.88471984  .00000825  00000-0  69921-4 0  9990,2 52487  53.2147 187.8316 0001455 103.8697 256.2457 15.08841734 87909,6917.875,95.437,540.747,538.734,0.0
52487.0,STARLINK-3902,PAYLOAD,2023-11-28 21:04:46,15.08846184,0.0001356,53.2149,183.3727,91.8311,268.2836,0.0002509,3.708e-05,0.0,0 STARLINK-3902,1 52487U 22049AN  23332.87831961  .00003708  00000-0  25090-3 0  9996,2 52487  53.2149 183.3727 0001356  91.8311 268.2836 15.08846184 88052,6917.861,95.437,540.665,538.788,0.0
52487.0,STARLINK-3902,PAYLOAD,2023-11-29 00:15:32,15.08848581,0.0001333,53.215,182.7778,92.9326,267.1819,0.00028133,4.193e-05,0.0,0 STARLINK-3902,1 52487U 22049AN  23333.01079827  .00004193  00000-0  28133-3 0  9998,2 52487  53.2150 182.7778 0001333  92.9326 267.1819 15.08848581 86999,6917.854,95.437,540.641,538.797,0.0
52487.0,STARLINK-3902,PAYLOAD,2023-11-29 19:20:11,15.08839082,0.0001422,53.2157,179.2059,104.17,255.945,4.2633e-05,3.91e-06,0.0,0 STARLINK-3902,1 52487U 22049AN  23333.80568356  .00000391  00000-0  42633-4 0  9993,2 52487  53.2157 179.2059 0001422 104.1700 255.9450 15.08839082 87117,6917.883,95.438,540.732,538.764,0.0
52487.0,STARLINK-3902,PAYLOAD,2023-12-01 12:40:12,15.08838533,0.0001355,53.2153,171.4775,97.86,262.2546,0.00013775,1.905e-05,0.0,0 STARLINK-3902,1 52487U 22049AN  23335.52792686  .00001905  00000-0  13775-3 0  9995,2 52487  53.2153 171.4775 0001355  97.8600 262.2546 15.08838533 87379,6917.885,95.438,540.687,538.812,0.0
52487.0,STARLINK-3902,PAYLOAD,2023-12-01 20:37:08,15.08845757,0.0001313,53.2149,169.9912,90.9918,269.1224,0.00020726,3.013e-05,0.0,0 STARLINK-3902,1 52487U 22049AN  23335.85912377  .00003013  00000-0  20726-3 0  9998,2 52487  53.2149 169.9912 0001313  90.9918 269.1224 15.08845757 88500,6917.863,95.437,540.636,538.819,0.0
52487.0,STARLINK-3902,PAYLOAD,2023-12-02 20:27:54,15.08849544,0.0001379,53.2153,165.5315,86.0113,274.1037,0.00017692,2.53e-05,0.0,0 STARLINK-3902,1 52487U 22049AN  23336.85271876  .00002530  00000-0  17692-3 0  9992,2 52487  53.2153 165.5315 0001379  86.0113 274.1037 15.08849544 88651,6917.851,95.437,540.67,538.762,0.0
52487.0,STARLINK-3902,PAYLOAD,2023-12-03 12:21:46,15.08835976,0.0001531,53.216,162.5605,83.3802,276.7365,-4.2133e-05,-9.58e-06,0.0,0 STARLINK-3902,1 52487U 22049AN  23337.51512357 -.00000958  00000-0 -42133-4 0  9991,2 52487  53.2160 162.5605 0001531  83.3802 276.7365 15.08835976 87670,6917.893,95.438,540.817,538.699,0.0
52487.0,STARLINK-3902,PAYLOAD,2023-12-03 18:43:19,15.08834524,0.0001494,53.2155,161.3672,81.7315,278.3846,-6.4057e-05,-1.307e-05,0.0,0 STARLINK-3902,1 52487U 22049AN  23337.78008938 -.00001307  00000-0 -64057-4 0  9993,2 52487  53.2155 161.3672 0001494  81.7315 278.3846 15.08834524 88798,6917.897,95.438,540.796,538.729,0.0
